start=new Date('2022-09-20T00:00:00.000Z').valueOf();
sats=[{"RCS_SIZE":"LARGE","OBJECT_NAME":"STARLINK-1707","ELEMENT_SET_NO":"999","BSTAR":"0.00011149000000","COUNTRY_CODE":"US","FILE":"3577995","INCLINATION":"53.0534","NORAD_CAT_ID":"46359","APOAPSIS":"548.233","MEAN_MOTION_DOT":"0.00001380","OBJECT_ID":"2020-062AL","MEAN_MOTION":"15.06401741","PERIOD":"95.592","MEAN_ELEMENT_THEORY":"SGP4","CLASSIFICATION_TYPE":"U","DECAY_DATE":null,"REV_AT_EPOCH":"11416","MEAN_MOTION_DDOT":"0.0000000000000","ECCENTRICITY":"0.00014800","ARG_OF_PERICENTER":"62.8708","OBJECT_TYPE":"PAYLOAD","RA_OF_ASC_NODE":"259.0067","SITE":"AFETR","TIME_SYSTEM":"UTC","SEMIMAJOR_AXIS":"6925.343","TLE_LINE2":"2 46359  53.0534 259.0067 0001480  62.8708 297.2431 15.06401741114162","MEAN_ANOMALY":"297.2431","REF_FRAME":"TEME","EPHEMERIS_TYPE":"0","TLE_LINE1":"1 46359U 20062AL  22262.78079858  .00001380  00000-0  11149-3 0  9994","EPOCH":"2022-09-19T18:44:20.997312","CENTER_NAME":"EARTH","PERIAPSIS":"546.183","LAUNCH_DATE":"2020-09-03","GP_ID":"213006287"},{"MEAN_MOTION_DDOT":"0.0000000000000","TIME_SYSTEM":"UTC","SITE":"AFETR","REF_FRAME":"TEME","TLE_LINE2":"2 46360  53.0524 260.3946 0001701  54.1840 305.9307 15.06419238114126","MEAN_ANOMALY":"305.9307","SEMIMAJOR_AXIS":"6925.290","ARG_OF_PERICENTER":"54.1840","ECCENTRICITY":"0.00017010","OBJECT_TYPE":"PAYLOAD","RA_OF_ASC_NODE":"260.3946","TLE_LINE1":"1 46360U 20062AM  22262.47119545  .00009619  00000-0  66340-3 0  9996","EPHEMERIS_TYPE":"0","CENTER_NAME":"EARTH","LAUNCH_DATE":"2020-09-03","GP_ID":"213006706","PERIAPSIS":"545.977","EPOCH":"2022-09-19T11:18:31.286880","BSTAR":"0.00066340000000","COUNTRY_CODE":"US","OBJECT_NAME":"STARLINK-1713","RCS_SIZE":"LARGE","ELEMENT_SET_NO":"999","APOAPSIS":"548.333","NORAD_CAT_ID":"46360","INCLINATION":"53.0524","FILE":"3577996","OBJECT_ID":"2020-062AM","MEAN_MOTION_DOT":"0.00009619","DECAY_DATE":null,"REV_AT_EPOCH":"11412","PERIOD":"95.591","MEAN_MOTION":"15.06419238","CLASSIFICATION_TYPE":"U","MEAN_ELEMENT_THEORY":"SGP4"},{"TIME_SYSTEM":"UTC","SITE":"AFETR","REF_FRAME":"TEME","MEAN_ANOMALY":"286.3066","TLE_LINE2":"2 46361  53.0532 260.7964 0001382  73.8075 286.3066 15.06400390113923","SEMIMAJOR_AXIS":"6925.347","ARG_OF_PERICENTER":"73.8075","ECCENTRICITY":"0.00013820","OBJECT_TYPE":"PAYLOAD","RA_OF_ASC_NODE":"260.7964","MEAN_MOTION_DDOT":"0.0000000000000","CENTER_NAME":"EARTH","LAUNCH_DATE":"2020-09-03","GP_ID":"212998141","PERIAPSIS":"546.255","EPOCH":"2022-09-19T08:59:08.156544","TLE_LINE1":"1 46361U 20062AN  22262.37439996  .00000951  00000-0  82695-4 0  9993","EPHEMERIS_TYPE":"0","APOAPSIS":"548.169","NORAD_CAT_ID":"46361","INCLINATION":"53.0532","FILE":"3577889","BSTAR":"0.00008269500000","COUNTRY_CODE":"US","RCS_SIZE":"LARGE","OBJECT_NAME":"STARLINK-1722","ELEMENT_SET_NO":"999","DECAY_DATE":null,"REV_AT_EPOCH":"11392","PERIOD":"95.592","MEAN_MOTION":"15.06400390","MEAN_ELEMENT_THEORY":"SGP4","CLASSIFICATION_TYPE":"U","OBJECT_ID":"2020-062AN","MEAN_MOTION_DOT":"0.00000951"},{"MEAN_MOTION_DDOT":"0.0000000000000","SITE":"AFETR","TIME_SYSTEM":"UTC","MEAN_ANOMALY":"282.7209","TLE_LINE2":"2 46362  53.0545 260.6228 0001471  77.3944 282.7209 15.06405431113934","SEMIMAJOR_AXIS":"6925.332","REF_FRAME":"TEME","ECCENTRICITY":"0.00014710","ARG_OF_PERICENTER":"77.3944","OBJECT_TYPE":"PAYLOAD","RA_OF_ASC_NODE":"260.6228","TLE_LINE1":"1 46362U 20062AP  22262.41957224  .00000831  00000-0  74636-4 0  9991","EPHEMERIS_TYPE":"0","CENTER_NAME":"EARTH","PERIAPSIS":"546.178","GP_ID":"212999390","LAUNCH_DATE":"2020-09-03","EPOCH":"2022-09-19T10:04:11.041536","BSTAR":"0.00007463600000","COUNTRY_CODE":"US","RCS_SIZE":"LARGE","ELEMENT_SET_NO":"999","OBJECT_NAME":"STARLINK-1726","NORAD_CAT_ID":"46362","APOAPSIS":"548.216","FILE":"3577889","INCLINATION":"53.0545","OBJECT_ID":"2020-062AP","MEAN_MOTION_DOT":"0.00000831","DECAY_DATE":null,"REV_AT_EPOCH":"11393","MEAN_MOTION":"15.06405431","PERIOD":"95.592","CLASSIFICATION_TYPE":"U","MEAN_ELEMENT_THEORY":"SGP4"},{"MEAN_MOTION_DDOT":"0.0000000000000","ARG_OF_PERICENTER":"72.7084","ECCENTRICITY":"0.00015700","RA_OF_ASC_NODE":"258.8459","OBJECT_TYPE":"PAYLOAD","TIME_SYSTEM":"UTC","SITE":"AFETR","REF_FRAME":"TEME","MEAN_ANOMALY":"287.4076","TLE_LINE2":"2 46363  53.0536 258.8459 0001570  72.7084 287.4076 15.06399794113998","SEMIMAJOR_AXIS":"6925.349","EPHEMERIS_TYPE":"0","TLE_LINE1":"1 46363U 20062AQ  22262.80934947  .00002153  00000-0  16336-3 0  9993","EPOCH":"2022-09-19T19:25:27.794208","CENTER_NAME":"EARTH","GP_ID":"213029656","LAUNCH_DATE":"2020-09-03","PERIAPSIS":"546.127","ELEMENT_SET_NO":"999","RCS_SIZE":"LARGE","OBJECT_NAME":"STARLINK-1739","BSTAR":"0.00016336000000","COUNTRY_CODE":"US","INCLINATION":"53.0536","FILE":"3578162","APOAPSIS":"548.301","NORAD_CAT_ID":"46363","MEAN_MOTION_DOT":"0.00002153","OBJECT_ID":"2020-062AQ","PERIOD":"95.592","MEAN_MOTION":"15.06399794","MEAN_ELEMENT_THEORY":"SGP4","CLASSIFICATION_TYPE":"U","DECAY_DATE":null,"REV_AT_EPOCH":"11399"},{"OBJECT_TYPE":"PAYLOAD","RA_OF_ASC_NODE":"241.4317","ARG_OF_PERICENTER":"105.8113","ECCENTRICITY":"0.00015160","SEMIMAJOR_AXIS":"6925.358","TLE_LINE2":"2 46364  53.0552 241.4317 0001516 105.8113 254.3043 15.06396789114190","MEAN_ANOMALY":"254.3043","REF_FRAME":"TEME","SITE":"AFETR","TIME_SYSTEM":"UTC","MEAN_MOTION_DDOT":"0.0000000000000","EPOCH":"2022-09-19T08:20:46.686048","PERIAPSIS":"546.174","GP_ID":"212998391","LAUNCH_DATE":"2020-09-03","CENTER_NAME":"EARTH","EPHEMERIS_TYPE":"0","TLE_LINE1":"1 46364U 20062AR  22262.34776257  .00001508  00000-0  12014-3 0  9993","FILE":"3577889","INCLINATION":"53.0552","NORAD_CAT_ID":"46364","APOAPSIS":"548.273","ELEMENT_SET_NO":"999","RCS_SIZE":"LARGE","OBJECT_NAME":"STARLINK-1763","COUNTRY_CODE":"US","BSTAR":"0.00012014000000","MEAN_ELEMENT_THEORY":"SGP4","CLASSIFICATION_TYPE":"U","MEAN_MOTION":"15.06396789","PERIOD":"95.592","REV_AT_EPOCH":"11419","DECAY_DATE":null,"MEAN_MOTION_DOT":"0.00001508","OBJECT_ID":"2020-062AR"},{"REV_AT_EPOCH":"11399","DECAY_DATE":null,"MEAN_ELEMENT_THEORY":"SGP4","CLASSIFICATION_TYPE":"U","MEAN_MOTION":"15.06407831","PERIOD":"95.592","OBJECT_ID":"2020-062AS","MEAN_MOTION_DOT":"0.00007403","NORAD_CAT_ID":"46365","APOAPSIS":"548.104","FILE":"3578162","INCLINATION":"53.0532","COUNTRY_CODE":"US","BSTAR":"0.00051526000000","RCS_SIZE":"LARGE","ELEMENT_SET_NO":"999","OBJECT_NAME":"STARLINK-1550","PERIAPSIS":"546.275","LAUNCH_DATE":"2020-09-03","GP_ID":"213030657","CENTER_NAME":"EARTH","EPOCH":"2022-09-19T20:30:30.313728","TLE_LINE1":"1 46365U 20062AS  22262.85451752  .00007403  00000-0  51526-3 0  9991","EPHEMERIS_TYPE":"0","TLE_LINE2":"2 46365  53.0532 258.6613 0001320  73.8252 286.2882 15.06407831113992","MEAN_ANOMALY":"286.2882","SEMIMAJOR_AXIS":"6925.325","REF_FRAME":"TEME","SITE":"AFETR","TIME_SYSTEM":"UTC","OBJECT_TYPE":"PAYLOAD","RA_OF_ASC_NODE":"258.6613","ECCENTRICITY":"0.00013200","ARG_OF_PERICENTER":"73.8252","MEAN_MOTION_DDOT":"0.0000000000000"},{"TLE_LINE1":"1 46366U 20062AT  22262.31268698  .00001632  00000-0  12841-3 0  9993","EPHEMERIS_TYPE":"0","PERIAPSIS":"546.176","LAUNCH_DATE":"2020-09-03","GP_ID":"212998891","CENTER_NAME":"EARTH","EPOCH":"2022-09-19T07:30:16.155072","MEAN_MOTION_DDOT":"0.0000000000000","SEMIMAJOR_AXIS":"6925.341","TLE_LINE2":"2 46366  53.0548 261.0995 0001488  80.0758 280.0398 15.06402438113911","MEAN_ANOMALY":"280.0398","REF_FRAME":"TEME","SITE":"AFETR","TIME_SYSTEM":"UTC","OBJECT_TYPE":"PAYLOAD","RA_OF_ASC_NODE":"261.0995","ECCENTRICITY":"0.00014880","ARG_OF_PERICENTER":"80.0758","OBJECT_ID":"2020-062AT","MEAN_MOTION_DOT":"0.00001632","REV_AT_EPOCH":"11391","DECAY_DATE":null,"MEAN_ELEMENT_THEORY":"SGP4","CLASSIFICATION_TYPE":"U","MEAN_MOTION":"15.06402438","PERIOD":"95.592","COUNTRY_CODE":"US","BSTAR":"0.00012841000000","RCS_SIZE":"LARGE","OBJECT_NAME":"STARLINK-1651","ELEMENT_SET_NO":"999","NORAD_CAT_ID":"46366","APOAPSIS":"548.237","FILE":"3577889","INCLINATION":"53.0548"},{"RCS_SIZE":"LARGE","OBJECT_NAME":"STARLINK-1658","ELEMENT_SET_NO":"999","BSTAR":"0.00007706600000","COUNTRY_CODE":"US","INCLINATION":"53.0542","FILE":"3577889","APOAPSIS":"548.165","NORAD_CAT_ID":"46368","MEAN_MOTION_DOT":"0.00000867","OBJECT_ID":"2020-062AV","PERIOD":"95.592","MEAN_MOTION":"15.06396297","MEAN_ELEMENT_THEORY":"SGP4","CLASSIFICATION_TYPE":"U","DECAY_DATE":null,"REV_AT_EPOCH":"11359","MEAN_MOTION_DDOT":"0.0000000000000","ARG_OF_PERICENTER":"67.7778","ECCENTRICITY":"0.00013580","RA_OF_ASC_NODE":"285.4866","OBJECT_TYPE":"PAYLOAD","TIME_SYSTEM":"UTC","SITE":"AFETR","REF_FRAME":"TEME","SEMIMAJOR_AXIS":"6925.360","TLE_LINE2":"2 46368  53.0542 285.4866 0001358  67.7778 292.3355 15.06396297113592","MEAN_ANOMALY":"292.3355","EPHEMERIS_TYPE":"0","TLE_LINE1":"1 46368U 20062AV  22262.44397752  .00000867  00000-0  77066-4 0  9993","EPOCH":"2022-09-19T10:39:19.657728","CENTER_NAME":"EARTH","GP_ID":"212999126","LAUNCH_DATE":"2020-09-03","PERIAPSIS":"546.284"},{"OBJECT_ID":"2020-062AX","MEAN_MOTION_DOT":"0.00001335","DECAY_DATE":null,"REV_AT_EPOCH":"11357","MEAN_MOTION":"15.06399258","PERIOD":"95.592","CLASSIFICATION_TYPE":"U","MEAN_ELEMENT_THEORY":"SGP4","BSTAR":"0.00010848000000","COUNTRY_CODE":"US","RCS_SIZE":"LARGE","ELEMENT_SET_NO":"999","OBJECT_NAME":"STARLINK-1670","NORAD_CAT_ID":"46370","APOAPSIS":"548.313","FILE":"3577889","INCLINATION":"53.0538","TLE_LINE1":"1 46370U 20062AX  22262.34170846  .00001335  00000-0  10848-3 0  9993","EPHEMERIS_TYPE":"0","CENTER_NAME":"EARTH","PERIAPSIS":"546.119","GP_ID":"212997892","LAUNCH_DATE":"2020-09-03","EPOCH":"2022-09-19T08:12:03.610944","MEAN_MOTION_DDOT":"0.0000000000000","SITE":"AFETR","TIME_SYSTEM":"UTC","TLE_LINE2":"2 46370  53.0538 285.9657 0001584  64.9164 295.1989 15.06399258113574","MEAN_ANOMALY":"295.1989","SEMIMAJOR_AXIS":"6925.351","REF_FRAME":"TEME","ECCENTRICITY":"0.00015840","ARG_OF_PERICENTER":"64.9164","RA_OF_ASC_NODE":"285.9657","OBJECT_TYPE":"PAYLOAD"}];
